STARLINK-32352          
1 61847U 24202C   26068.46326900 -.00005288  00000+0 -18270-3 0  9993
2 61847  42.9951 227.9627 0000746 262.7330  97.3437 15.27594260 75436
HERMES-2                
1 63243U 25052AK  26068.92847372  .00009456  00000+0  34839-3 0  9999
2 63243  97.4004 324.4926 0006340  99.4160 260.7796 15.28021069 54859
